OBJECT_NAME,OBJECT_ID,EPOCH,MEAN_MOTION,ECCENTRICITY,INCLINATION,RA_OF_ASC_NODE,ARG_OF_PERICENTER,MEAN_ANOMALY,EPHEMERIS_TYPE,CLASSIFICATION_TYPE,NORAD_CAT_ID,ELEMENT_SET_NO,REV_AT_EPOCH,BSTAR,MEAN_MOTION_DOT,MEAN_MOTION_DDOT
COSMOS 2361,1998-076A,2024-07-07T21:19:21.550368,13.73124241,.0030139,82.9343,10.6701,280.0382,199.9854,0,U,25590,999,27965,.70393E-4,.8E-6,0
COSMOS 2378,2001-023A,2024-07-07T13:22:37.624224,13.74053690,.0032038,82.9264,27.5513,222.1470,190.8801,0,U,26818,999,15738,.33238E-4,.46E-6,0
COSMOS 2389,2002-026A,2024-07-07T21:54:26.447904,13.75069274,.0047728,82.9522,333.9298,79.4064,32.9692,0,U,27436,999,10969,.43655E-4,.58E-6,0
COSMOS 2398,2003-023A,2024-07-08T05:35:42.546048,13.72301239,.0032575,82.9495,297.7185,122.9910,247.4613,0,U,27818,999,5648,.69311E-4,.79E-6,0
COSMOS 2407,2004-028A,2024-07-07T16:00:21.508704,13.76217343,.0040629,82.9593,240.2344,77.4986,35.9504,0,U,28380,999,247,.71686E-4,.86E-6,0
COSMOS 2414,2005-002A,2024-07-08T04:53:21.833952,13.87781248,.004002,82.9482,219.8309,188.9039,171.1419,0,U,28521,999,98580,.47373E-4,.72E-6,0
COSMOS 2429,2007-038A,2024-07-07T11:39:21.814560,13.75059172,.0039598,82.9807,8.9271,58.4844,302.0171,0,U,32052,999,84411,.53457E-4,.67E-6,0
COSMOS 2454,2009-039A,2024-07-07T14:40:07.040640,13.89810166,.0020456,82.9550,205.2325,127.0019,353.2113,0,U,35635,999,75883,.55062E-4,.84E-6,0
COSMOS 2463,2010-017A,2024-07-07T16:56:32.542944,13.71564941,.0035023,82.9596,50.9799,299.9674,122.1751,0,U,36519,999,71076,.66385E-4,.75E-6,0
